[{"OBJECT_NAME":"STARLINK-4473","OBJECT_ID":"2022-105N","EPOCH":"2026-03-09T14:56:46.914144","MEAN_MOTION":15.01265587,"ECCENTRICITY":0.0002777,"INCLINATION":97.6047,"RA_OF_ASC_NODE":310.139,"ARG_OF_PERICENTER":98.7216,"MEAN_ANOMALY":261.4323,"EPHEMERIS_TYPE":0,"CLASSIFICATION_TYPE":"U","NORAD_CAT_ID":53660,"ELEMENT_SET_NO":999,"REV_AT_EPOCH":19322,"BSTAR":4.9957e-6,"MEAN_MOTION_DOT":6.0e-8,"MEAN_MOTION_DDOT":0},{"OBJECT_NAME":"HAWK-9A","OBJECT_ID":"2024-066E","EPOCH":"2026-03-09T10:20:39.002208","MEAN_MOTION":14.98777479,"ECCENTRICITY":0.00036271,"INCLINATION":45.6088,"RA_OF_ASC_NODE":72.7153,"ARG_OF_PERICENTER":244.6286,"MEAN_ANOMALY":115.4219,"EPHEMERIS_TYPE":0,"CLASSIFICATION_TYPE":"U","NORAD_CAT_ID":59446,"ELEMENT_SET_NO":999,"REV_AT_EPOCH":10486,"BSTAR":0.00023458946,"MEAN_MOTION_DOT":2.638e-5,"MEAN_MOTION_DDOT":0}]
