STARLINK-4473           
1 53660U 22105N   26068.62276521  .00000006  00000+0  49957-5 0  9997
2 53660  97.6047 310.1390 0002777  98.7216 261.4323 15.01265587193226
HAWK-9A                 
1 59446U 24066E   26068.43100697  .00002638  00000+0  23459-3 0  9992
2 59446  45.6088  72.7153 0003627 244.6286 115.4219 14.98777479104861
